STARLINK-31198          
1 58867U 24019Q   26068.48751045  .00000092  00000+0  12875-4 0  9993
2 58867  43.0012 249.8639 0001199 269.7146  90.3568 15.27578083119033
LIME                    
1 62648U 25009AR  26068.73906781  .00013254  00000+0  47723-3 0  9995
2 62648  97.3985 151.4831 0001635  35.9029 324.2320 15.28703313 63766
